ONEWEB-0403             
1 50483U 21132Q   24275.48786780  .00000046  00000+0  85003-4 0  9996
2 50483  87.9048  99.5974 0001501  87.9540 272.1764 13.18683941139399
ONEWEB-0404             
1 50484U 21132R   24275.60540242 -.00000277  00000+0 -81610-3 0  9999
2 50484  87.8947 145.2755 0001462  63.7617 296.3662 13.11417779133965
ONEWEB-0405             
1 50485U 21132S   24275.50368566  .00000064  00000+0  13074-3 0  9997
2 50485  87.9048  99.5840 0001465 100.6009 259.5288 13.18686069139793
ONEWEB-0406             
1 50486U 21132T   24275.49262555 -.00000069  00000+0 -20712-3 0  9991
2 50486  87.9049  99.6000 0001804  64.7713 295.3606 13.18684852139423
ONEWEB-0407             
1 50487U 21132U   24275.48628857  .00000064  00000+0  12977-3 0  9999
2 50487  87.9043  99.5982 0001548  91.5916 268.5393 13.18685348139363
ONEWEB-0409             
1 50488U 21132V   24275.60369617 -.00000355  00000+0 -10364-2 0  9992
2 50488  87.8939 145.2631 0001757  63.7385 296.3923 13.11419688133851
ONEWEB-0412             
1 50489U 21132W   24275.47523111  .00000081  00000+0  17380-3 0  9999
2 50489  87.9050  99.6050 0001491 103.9001 256.2297 13.18685510139458
ONEWEB-0413             
1 50490U 21132X   24275.47996835  .00000056  00000+0  10934-3 0  9998
2 50490  87.9054  99.6167 0001657 101.4439 258.6879 13.18684704139394
